{
  "type": "FeatureCollection",
  "features": [
    {
      "type": "Feature",
      "properties": {
        "norad_id": 66565,
        "name": "STARLINK-35893",
        "group": "last-30-days",
        "lat": -7.662666548740528,
        "lon": -24.994709064736924,
        "alt_km": 405.06901539465616,
        "timestamp": "2025-12-08T08:58:59.557313+00:00",
        "meta_object_name": "STARLINK-35893",
        "meta_object_id": "2025-268J",
        "meta_epoch": "2025-12-07T22:00:03.000096",
        "meta_mean_motion": 15.56242783,
        "meta_eccentricity": 0.00013572,
        "meta_inclination": 43.0001,
        "meta_ra_of_asc_node": 149.3998,
        "meta_arg_of_pericenter": 283.7672,
        "meta_mean_anomaly": 222.3193,
        "meta_ephemeris_type": 0,
        "meta_classification_type": "U",
        "meta_norad_cat_id": 66565,
        "meta_element_set_no": 999,
        "meta_rev_at_epoch": 389,
        "meta_bstar": -0.031012636,
        "meta_mean_motion_dot": -0.01964304,
        "meta_mean_motion_ddot": 0,
        "tle_line1": "1 66565U 25268J   25341.91670139 -.01964304  00000+0 -31013-1 0  9999",
        "tle_line2": "2 66565  43.0001 149.3998 0001357 283.7672 222.3193 15.56242783  3897"
      },
      "geometry": {
        "type": "Point",
        "coordinates": [
          -24.994709064736924,
          -7.662666548740528
        ]
      }
    },
    {
      "type": "Feature",
      "properties": {
        "norad_id": 66566,
        "name": "STARLINK-35871",
        "group": "last-30-days",
        "lat": -8.9534382063139,
        "lon": -23.56696080463528,
        "alt_km": 405.1682977940154,
        "timestamp": "2025-12-08T08:58:59.557323+00:00",
        "meta_object_name": "STARLINK-35871",
        "meta_object_id": "2025-268K",
        "meta_epoch": "2025-12-07T22:00:03.000096",
        "meta_mean_motion": 15.56242089,
        "meta_eccentricity": 0.00013036,
        "meta_inclination": 43,
        "meta_ra_of_asc_node": 149.395,
        "meta_arg_of_pericenter": 283.5378,
        "meta_mean_anomaly": 224.4664,
        "meta_ephemeris_type": 0,
        "meta_classification_type": "U",
        "meta_norad_cat_id": 66566,
        "meta_element_set_no": 999,
        "meta_rev_at_epoch": 389,
        "meta_bstar": -0.03100644,
        "meta_mean_motion_dot": -0.01963878,
        "meta_mean_motion_ddot": 0,
        "tle_line1": "1 66566U 25268K   25341.91670139 -.01963878  00000+0 -31006-1 0  9997",
        "tle_line2": "2 66566  43.0000 149.3950 0001303 283.5378 224.4664 15.56242089  3892"
      },
      "geometry": {
        "type": "Point",
        "coordinates": [
          -23.56696080463528,
          -8.9534382063139
        ]
      }
    },
    {
      "type": "Feature",
      "properties": {
        "norad_id": 66567,
        "name": "STARLINK-35825",
        "group": "last-30-days",
        "lat": -10.237280593542973,
        "lon": -22.13061822593905,
        "alt_km": 405.16466707701784,
        "timestamp": "2025-12-08T08:58:59.557333+00:00",
        "meta_object_name": "STARLINK-35825",
        "meta_object_id": "2025-268L",
        "meta_epoch": "2025-12-07T22:00:03.000096",
        "meta_mean_motion": 15.56244284,
        "meta_eccentricity": 0.00013836,
        "meta_inclination": 43,
        "meta_ra_of_asc_node": 149.3902,
        "meta_arg_of_pericenter": 278.8108,
        "meta_mean_anomaly": 231.11,
        "meta_ephemeris_type": 0,
        "meta_classification_type": "U",
        "meta_norad_cat_id": 66567,
        "meta_element_set_no": 999,
        "meta_rev_at_epoch": 389,
        "meta_bstar": -0.031073731,
        "meta_mean_motion_dot": -0.02004492,
        "meta_mean_motion_ddot": 0,
        "tle_line1": "1 66567U 25268L   25341.91670139 -.02004492  00000+0 -31074-1 0  9992",
        "tle_line2": "2 66567  43.0000 149.3902 0001383 278.8108 231.1100 15.56244284  3895"
      },
      "geometry": {
        "type": "Point",
        "coordinates": [
          -22.13061822593905,
          -10.237280593542973
        ]
      }
    },
    {
      "type": "Feature",
      "properties": {
        "norad_id": 66568,
        "name": "STARLINK-35803",
        "group": "last-30-days",
        "lat": -11.515283786023412,
        "lon": -20.68226059457488,
        "alt_km": 405.31134896322965,
        "timestamp": "2025-12-08T08:58:59.557343+00:00",
        "meta_object_name": "STARLINK-35803",
        "meta_object_id": "2025-268M",
        "meta_epoch": "2025-12-07T22:00:03.000096",
        "meta_mean_motion": 15.562448,
        "meta_eccentricity": 0.00014037,
        "meta_inclination": 43,
        "meta_ra_of_asc_node": 149.3851,
        "meta_arg_of_pericenter": 280.7556,
        "meta_mean_anomaly": 231.0823,
        "meta_ephemeris_type": 0,
        "meta_classification_type": "U",
        "meta_norad_cat_id": 66568,
        "meta_element_set_no": 999,
        "meta_rev_at_epoch": 389,
        "meta_bstar": -0.031096555,
        "meta_mean_motion_dot": -0.02005858,
        "meta_mean_motion_ddot": 0,
        "tle_line1": "1 66568U 25268M   25341.91670139 -.02005858  00000+0 -31097-1 0  9995",
        "tle_line2": "2 66568  43.0000 149.3851 0001403 280.7556 231.0823 15.56244800  3896"
      },
      "geometry": {
        "type": "Point",
        "coordinates": [
          -20.68226059457488,
          -11.515283786023412
        ]
      }
    },
    {
      "type": "Feature",
      "properties": {
        "norad_id": 66569,
        "name": "STARLINK-35835",
        "group": "last-30-days",
        "lat": -12.786746071289265,
        "lon": -19.219364532191406,
        "alt_km": 405.40054106190473,
        "timestamp": "2025-12-08T08:58:59.557355+00:00",
        "meta_object_name": "STARLINK-35835",
        "meta_object_id": "2025-268N",
        "meta_epoch": "2025-12-07T22:00:03.000096",
        "meta_mean_motion": 15.56245612,
        "meta_eccentricity": 0.00013727,
        "meta_inclination": 43.0001,
        "meta_ra_of_asc_node": 149.3805,
        "meta_arg_of_pericenter": 280.7292,
        "meta_mean_anomaly": 233.0241,
        "meta_ephemeris_type": 0,
        "meta_classification_type": "U",
        "meta_norad_cat_id": 66569,
        "meta_element_set_no": 999,
        "meta_rev_at_epoch": 389,
        "meta_bstar": -0.031086076,
        "meta_mean_motion_dot": -0.02005288,
        "meta_mean_motion_ddot": 0,
        "tle_line1": "1 66569U 25268N   25341.91670139 -.02005288  00000+0 -31086-1 0  9991",
        "tle_line2": "2 66569  43.0001 149.3805 0001372 280.7292 233.0241 15.56245612  3897"
      },
      "geometry": {
        "type": "Point",
        "coordinates": [
          -19.219364532191406,
          -12.786746071289265
        ]
      }
    },
    {
      "type": "Feature",
      "properties": {
        "norad_id": 66570,
        "name": "STARLINK-35834",
        "group": "last-30-days",
        "lat": -14.05015538295486,
        "lon": -17.742593096691675,
        "alt_km": 405.46445874244455,
        "timestamp": "2025-12-08T08:58:59.557365+00:00",
        "meta_object_name": "STARLINK-35834",
        "meta_object_id": "2025-268P",
        "meta_epoch": "2025-12-07T22:00:03.000096",
        "meta_mean_motion": 15.56245416,
        "meta_eccentricity": 0.00013613,
        "meta_inclination": 43.0002,
        "meta_ra_of_asc_node": 149.3748,
        "meta_arg_of_pericenter": 279.4257,
        "meta_mean_anomaly": 236.2472,
        "meta_ephemeris_type": 0,
        "meta_classification_type": "U",
        "meta_norad_cat_id": 66570,
        "meta_element_set_no": 999,
        "meta_rev_at_epoch": 389,
        "meta_bstar": -0.031116074,
        "meta_mean_motion_dot": -0.02007,
        "meta_mean_motion_ddot": 0,
        "tle_line1": "1 66570U 25268P   25341.91670139 -.02007000  00000+0 -31116-1 0  9991",
        "tle_line2": "2 66570  43.0002 149.3748 0001361 279.4257 236.2472 15.56245416  3893"
      },
      "geometry": {
        "type": "Point",
        "coordinates": [
          -17.742593096691675,
          -14.05015538295486
        ]
      }
    },
    {
      "type": "Feature",
      "properties": {
        "norad_id": 66571,
        "name": "STARLINK-35836",
        "group": "last-30-days",
        "lat": -15.302342042677317,
        "lon": -16.25075490800393,
        "alt_km": 405.4969267425822,
        "timestamp": "2025-12-08T08:58:59.557377+00:00",
        "meta_object_name": "STARLINK-35836",
        "meta_object_id": "2025-268Q",
        "meta_epoch": "2025-12-07T22:00:03.000096",
        "meta_mean_motion": 15.56246516,
        "meta_eccentricity": 0.0001466,
        "meta_inclination": 43.0001,
        "meta_ra_of_asc_node": 149.3702,
        "meta_arg_of_pericenter": 277.9701,
        "meta_mean_anomaly": 239.6169,
        "meta_ephemeris_type": 0,
        "meta_classification_type": "U",
        "meta_norad_cat_id": 66571,
        "meta_element_set_no": 999,
        "meta_rev_at_epoch": 389,
        "meta_bstar": -0.031114035,
        "meta_mean_motion_dot": -0.02007021,
        "meta_mean_motion_ddot": 0,
        "tle_line1": "1 66571U 25268Q   25341.91670139 -.02007021  00000+0 -31114-1 0  9993",
        "tle_line2": "2 66571  43.0001 149.3702 0001466 277.9701 239.6169 15.56246516  3898"
      },
      "geometry": {
        "type": "Point",
        "coordinates": [
          -16.25075490800393,
          -15.302342042677317
        ]
      }
    }
  ]
}